NORAD_CAT_ID,OBJECT_NAME,OBJECT_TYPE,EPOCH,MEAN_MOTION,ECCENTRICITY,INCLINATION,RA_OF_ASC_NODE,ARG_OF_PERICENTER,MEAN_ANOMALY,BSTAR,MEAN_MOTION_DOT,MEAN_MOTION_DDOT,TLE_LINE0,TLE_LINE1,TLE_LINE2,SEMIMAJOR_AXIS,PERIOD,APOGEE,PERIGEE,DECAYED
52605.0,STARLINK-4000,PAYLOAD,2022-07-02 12:00:00,15.08789023,0.0001951,53.2122,207.4042,43.2963,353.2114,0.0020447,0.00032358,0.0,0 STARLINK-4000,1 52605U 22052H   22183.50001157  .00032358  00000-0  20447-2 0  9994,2 52605  53.2122 207.4042 0001951  43.2963 353.2114 15.08789023  7927,6918.036,95.441,541.251,538.552,0.0
52605.0,STARLINK-4000,PAYLOAD,2022-07-02 14:00:01,15.08798516,0.000195,53.2119,207.0298,41.6662,87.7261,0.0011326,0.00017763,0.0,0 STARLINK-4000,1 52605U 22052H   22183.58334491  .00017763  00000-0  11326-2 0  9991,2 52605  53.2119 207.0298 0001950  41.6662  87.7261 15.08798516  1304,6918.007,95.44,541.221,538.523,0.0
52605.0,STARLINK-4000,PAYLOAD,2022-07-02 22:00:00,15.08779429,0.0001771,53.2122,205.5317,48.4273,92.5265,0.005326,0.00085362,0.0,0 STARLINK-4000,1 52605U 22052H   22183.91667824  .00085362  00000-0  53260-2 0  9990,2 52605  53.2122 205.5317 0001771  48.4273  92.5265 15.08779429  1307,6918.066,95.441,541.156,538.705,0.0
52605.0,STARLINK-4000,PAYLOAD,2022-07-03 14:00:01,15.08836545,0.0002024,53.2118,202.5403,45.5068,118.6002,0.00059054,9.122e-05,0.0,0 STARLINK-4000,1 52605U 22052H   22184.58334491  .00009122  00000-0  59054-3 0  9993,2 52605  53.2118 202.5403 0002024  45.5068 118.6002 15.08836545  1309,6917.891,95.438,541.156,538.356,0.0
52605.0,STARLINK-4000,PAYLOAD,2022-07-03 22:00:00,15.08818452,0.0001841,53.212,201.0422,51.412,124.2952,0.0023003,0.0003649,0.0,0 STARLINK-4000,1 52605U 22052H   22184.91667824  .00036490  00000-0  23003-2 0  9991,2 52605  53.2120 201.0422 0001841  51.4120 124.2952 15.08818452  1302,6917.946,95.439,541.085,538.538,0.0
52605.0,STARLINK-4000,PAYLOAD,2022-07-04 04:00:01,15.08857357,0.0001918,53.2122,199.9206,51.8376,42.6136,-0.0020287,-0.00032446,0.0,0 STARLINK-4000,1 52605U 22052H   22185.16668981 -.00032446  00000-0 -20287-2 0  9994,2 52605  53.2122 199.9206 0001918  51.8376  42.6136 15.08857357  8177,6917.8269999999975,95.436,541.019,538.365,0.0
52605.0,STARLINK-4000,PAYLOAD,2022-07-04 14:00:01,15.08841946,0.0002049,53.2117,198.0508,47.1992,151.6866,-0.00016934,-2.983e-05,0.0,0 STARLINK-4000,1 52605U 22052H   22185.58334491 -.00002983  00000-0 -16934-3 0  9994,2 52605  53.2117 198.0508 0002049  47.1992 151.6866 15.08841946  1300,6917.874,95.437,541.1569999999998,538.322,0.0
52605.0,STARLINK-4000,PAYLOAD,2022-07-04 22:00:00,15.08820857,0.0001901,53.2118,196.5526,53.0198,157.4701,0.0023134,0.00036703,0.0,0 STARLINK-4000,1 52605U 22052H   22185.91667824  .00036703  00000-0  23134-2 0  9994,2 52605  53.2118 196.5526 0001901  53.0198 157.4701 15.08820857  1304,6917.939,95.439,541.119,538.489,0.0
52605.0,STARLINK-4000,PAYLOAD,2022-07-05 14:00:01,15.08850107,0.0002095,53.2116,193.5613,48.2732,185.4006,-0.00076914,-0.00012512,0.0,0 STARLINK-4000,1 52605U 22052H   22186.58334491 -.00012512  00000-0 -76914-3 0  9998,2 52605  53.2116 193.5613 0002095  48.2732 185.4006 15.08850107  1301,6917.849,95.437,541.164,538.265,0.0
52605.0,STARLINK-4000,PAYLOAD,2022-07-05 22:00:00,15.08824341,0.0001985,53.2118,192.0631,53.8744,191.4083,0.0023945,0.0003801,0.0,0 STARLINK-4000,1 52605U 22052H   22186.91667824  .00038010  00000-0  23945-2 0  9998,2 52605  53.2118 192.0631 0001985  53.8744 191.4083 15.08824341  1302,6917.928000000001,95.439,541.1659999999998,538.42,0.0
52605.0,STARLINK-4000,PAYLOAD,2022-07-06 12:00:02,15.08830961,0.0002211,53.2118,189.4461,48.2586,127.3844,0.0020179,0.00031966,0.0,0 STARLINK-4000,1 52605U 22052H   22187.50002315  .00031966  00000-0  20179-2 0  9991,2 52605  53.2118 189.4461 0002211  48.2586 127.3844 15.08830961  8527,6917.908,95.438,541.303,538.243,0.0
52605.0,STARLINK-4000,PAYLOAD,2022-07-06 14:00:01,15.08857668,0.0002175,53.2118,189.0716,48.9383,219.5338,-0.0013204,-0.00021252,0.0,0 STARLINK-4000,1 52605U 22052H   22187.58334491 -.00021252  00000-0 -13204-2 0  9992,2 52605  53.2118 189.0716 0002175  48.9383 219.5338 15.08857668  1301,6917.826,95.436,541.196,538.187,0.0
52605.0,STARLINK-4000,PAYLOAD,2022-07-06 22:00:00,15.08828253,0.0002093,53.212,187.5735,54.5865,225.4993,0.002472,0.00039261,0.0,0 STARLINK-4000,1 52605U 22052H   22187.91667824  .00039261  00000-0  24720-2 0  9990,2 52605  53.2120 187.5735 0002093  54.5865 225.4993 15.08828253  1306,6917.916,95.438,541.229,538.3330000000002,0.0
52605.0,STARLINK-4000,PAYLOAD,2022-07-07 01:31:59,15.08847313,0.000212,53.2134,186.9132,52.9764,307.1422,4.9148e-05,4.94e-06,0.0,0 STARLINK-4000,1 52605U 22052H   22188.06388109  .00000494  00000-0  49148-4 0  9992,2 52605  53.2134 186.9132 0002120  52.9764 307.1422 15.08847313  8610,6917.858,95.437,541.19,538.256,0.0
52605.0,STARLINK-4000,PAYLOAD,2022-07-07 12:00:00,15.08827938,0.0002259,53.2121,184.9566,50.1798,160.197,0.0014574,0.00022975,0.0,0 STARLINK-4000,1 52605U 22052H   22188.50001157  .00022975  00000-0  14574-2 0  9997,2 52605  53.2121 184.9566 0002259  50.1798 160.1970 15.08827938  8688,6917.917,95.438,541.345,538.22,0.0
52605.0,STARLINK-4000,PAYLOAD,2022-07-07 14:00:01,15.0885268,0.000222,53.2121,184.582,50.8213,252.4462,-0.0017323,-0.00027763,0.0,0 STARLINK-4000,1 52605U 22052H   22188.58334491 -.00027763  00000-0 -17323-2 0  9992,2 52605  53.2121 184.5820 0002220  50.8213 252.4462 15.08852680  1309,6917.842,95.437,541.242,538.1709999999998,0.0
52605.0,STARLINK-4000,PAYLOAD,2022-07-07 22:00:00,15.08830311,0.0002077,53.214,183.0811,58.4784,256.3932,0.0011595999999999,0.0001821,0.0,0 STARLINK-4000,1 52605U 22052H   22188.91667824  .00018210  00000-0  11596-2 0  9999,2 52605  53.2140 183.0811 0002077  58.4784 256.3932 15.08830311  1303,6917.91,95.438,541.212,538.3380000000002,0.0
52605.0,STARLINK-4000,PAYLOAD,2022-07-08 08:00:01,15.08835411,0.0002358,53.2126,181.2154,52.5342,6.8348,0.00077735,0.00012104,0.0,0 STARLINK-4000,1 52605U 22052H   22189.33334491  .00012104  00000-0  77735-3 0  9991,2 52605  53.2126 181.2154 0002358  52.5342   6.8348 15.08835411  8801,6917.894,95.438,541.391,538.128,0.0
52605.0,STARLINK-4000,PAYLOAD,2022-07-08 14:00:01,15.08870071,0.0002284,53.2123,180.0923,52.4009,285.67,-0.0016655,-0.0002672,0.0,0 STARLINK-4000,1 52605U 22052H   22189.58334491 -.00026720  00000-0 -16655-2 0  9992,2 52605  53.2123 180.0923 0002284  52.4009 285.6700 15.08870071  1304,6917.788000000001,95.436,541.2330000000002,538.073,0.0
52605.0,STARLINK-4000,PAYLOAD,2022-07-08 22:00:01,15.08855492,0.0002155,53.2126,178.5944,57.83,291.9244,-4.6369e-05,-1.027e-05,0.0,0 STARLINK-4000,1 52605U 22052H   22189.91668981 -.00001027  00000-0 -46369-4 0  9993,2 52605  53.2126 178.5944 0002155  57.8300 291.9244 15.08855492  1305,6917.833000000001,95.437,541.189,538.207,0.0
52605.0,STARLINK-4000,PAYLOAD,2022-07-09 12:00:00,15.088412900000002,0.00022,53.2122,175.9773,50.2628,229.7303,-0.0025304,-0.00040337,0.0,0 STARLINK-4000,1 52605U 22052H   22190.50001157 -.00040337  00000-0 -25304-2 0  9997,2 52605  53.2122 175.9773 0002200  50.2628 229.7303 15.08841290  8980,6917.876,95.437,541.263,538.22,0.0
52605.0,STARLINK-4000,PAYLOAD,2022-07-09 14:00:01,15.08843309,0.0002163,53.2122,175.6026,51.3206,321.5683,-0.0036671,-0.00058186,0.0,0 STARLINK-4000,1 52605U 22052H   22190.58334491 -.00058186  00000-0 -36671-2 0  9995,2 52605  53.2122 175.6026 0002163  51.3206 321.5683 15.08843309  1304,6917.87,95.437,541.232,538.239,0.0
52605.0,STARLINK-4000,PAYLOAD,2022-07-09 20:00:01,15.08786994,0.0002016,53.2124,174.4791,55.5374,236.042,0.0028904,0.00045947,0.0,0 STARLINK-4000,1 52605U 22052H   22190.83334491  .00045947  00000-0  28904-2 0  9992,2 52605  53.2124 174.4791 0002016  55.5374 236.0420 15.08786994  1306,6918.042,95.441,541.302,538.513,0.0
52605.0,STARLINK-4000,PAYLOAD,2022-07-10 14:00:01,15.08833379,0.0002143,53.2119,171.1131,52.9874,354.5957,-0.0021358,-0.00034114,0.0,0 STARLINK-4000,1 52605U 22052H   22191.58334491 -.00034114  00000-0 -21358-2 0  9997,2 52605  53.2119 171.1131 0002143  52.9874 354.5957 15.08833379  1300,6917.901,95.438,541.248,538.283,0.0
52605.0,STARLINK-4000,PAYLOAD,2022-07-10 22:00:00,15.08811424,0.0002052,53.2121,169.6157,59.1309,0.0273,0.0018278,0.00028899,0.0,0 STARLINK-4000,1 52605U 22052H   22191.91667824  .00028899  00000-0  18278-2 0  9991,2 52605  53.2121 169.6157 0002052  59.1309   0.0273 15.08811424  1305,6917.968000000003,95.439,541.252,538.413,0.0
52605.0,STARLINK-4000,PAYLOAD,2022-07-11 14:00:01,15.08844017,0.0002149,53.2129,166.6236,55.8564,26.4506,-0.0019908,-0.00031837,0.0,0 STARLINK-4000,1 52605U 22052H   22192.58334491 -.00031837  00000-0 -19908-2 0  9995,2 52605  53.2129 166.6236 0002149  55.8564  26.4506 15.08844017  1306,6917.868,95.437,541.22,538.246,0.0
52605.0,STARLINK-4000,PAYLOAD,2022-07-11 22:00:00,15.08827491,0.0002097,53.2138,165.1263,61.6383,32.2544,0.0013939,0.00021958,0.0,0 STARLINK-4000,1 52605U 22052H   22192.91667824  .00021958  00000-0  13939-2 0  9990,2 52605  53.2138 165.1263 0002097  61.6383  32.2544 15.08827491  1300,6917.919,95.438,541.234,538.3330000000002,0.0
52605.0,STARLINK-4000,PAYLOAD,2022-07-12 04:00:00,15.08845721,0.0002199,53.2136,164.0055,57.7431,314.8424,-0.0010505999999999,-0.00016973,0.0,0 STARLINK-4000,1 52605U 22052H   22193.16667824 -.00016973  00000-0 -10506-2 0  9998,2 52605  53.2136 164.0055 0002199  57.7431 314.8424 15.08845721  9386,6917.863,95.437,541.249,538.207,0.0
52605.0,STARLINK-4000,PAYLOAD,2022-07-12 14:00:01,15.08863339,0.0002164,53.2134,162.1342,58.6144,58.4678,-0.0015,-0.00024097,0.0,0 STARLINK-4000,1 52605U 22052H   22193.58334491 -.00024097  00000-0 -15000-2 0  9995,2 52605  53.2134 162.1342 0002164  58.6144  58.4678 15.08863339  1306,6917.809,95.436,541.1709999999998,538.177,0.0
